{"fetched_at":"2026-03-29T16:36:15Z","count":15609,"tles":[{"name":"STARLINK-11140 [DTC]","line1":"1 60039U 24112B   26087.63985380  .00002581  00000+0  26137-4 0  9991","line2":"2 60039  53.1599 173.1229 0001038  80.0839 280.0297 15.69726136103959","category":"Starlink"}]}